[{"OBJECT_NAME":"STARLINK-35896","OBJECT_ID":"2025-280D","EPOCH":"2026-03-09T21:21:08.123904","MEAN_MOTION":14.98331242,"ECCENTRICITY":0.00027046,"INCLINATION":70.0024,"RA_OF_ASC_NODE":334.0424,"ARG_OF_PERICENTER":274.2001,"MEAN_ANOMALY":85.8848,"EPHEMERIS_TYPE":0,"CLASSIFICATION_TYPE":"U","NORAD_CAT_ID":66824,"ELEMENT_SET_NO":999,"REV_AT_EPOCH":1610,"BSTAR":0.00032907249,"MEAN_MOTION_DOT":3.836e-5,"MEAN_MOTION_DDOT":0},{"OBJECT_NAME":"THOR ABLESTAR DEB","OBJECT_ID":"1961-015FQ","EPOCH":"2026-03-09T11:46:19.148160","MEAN_MOTION":14.93919582,"ECCENTRICITY":0.00285609,"INCLINATION":66.0574,"RA_OF_ASC_NODE":102.4005,"ARG_OF_PERICENTER":353.0053,"MEAN_ANOMALY":7.0669,"EPHEMERIS_TYPE":0,"CLASSIFICATION_TYPE":"U","NORAD_CAT_ID":478,"ELEMENT_SET_NO":999,"REV_AT_EPOCH":36928,"BSTAR":0.0013681176,"MEAN_MOTION_DOT":0.00014607,"MEAN_MOTION_DDOT":0}]
